IRIDIUM 63              
1 25286U 98021B   25249.88407552  .00000741  00000+0  24542-3 0  9995
2 25286  86.3957  47.8309 0002168  85.3688 274.7756 14.36604601435572
IRIDIUM 69              
1 25319U 98026A   25249.92356475  .00000732  00000+0  22162-3 0  9995
2 25319  86.3930  60.8534 0004412 102.6580 257.5113 14.41038594434835
IRIDIUM 71              
1 25320U 98026B   25249.91989231  .00000729  00000+0  21966-3 0  9995
2 25320  86.3936  55.5326 0003117 132.4953 227.6511 14.41219994435363
IRIDIUM 73              
1 25344U 98032C   25249.87768676  .00001093  00000+0  26690-3 0  9995
2 25344  86.4459  12.1142 0002863  88.4519 271.7015 14.51806499442416
IRIDIUM 82              
1 25467U 98051A   25249.89884581  .00043384  00000+0  11086-2 0  9999
2 25467  86.3599  69.4253 0077778 346.9253  12.9979 15.36154132436486
