<?xml version="1.0" encoding="UTF-8"?>
<ndm xmlns:xsi="http://www.w3.org/2001/XMLSchema-instance" xsi:noNamespaceSchemaLocation="https://sanaregistry.org/r/ndmxml_unqualified/ndmxml-2.0.0-master-2.0.xsd">
<omm id="CCSDS_OMM_VERS" version="2.0">
<header><CREATION_DATE/><ORIGINATOR/></header><body><segment><metadata><OBJECT_NAME>IRIDIUM 63</OBJECT_NAME><OBJECT_ID>1998-021B</OBJECT_ID><CENTER_NAME>EARTH</CENTER_NAME><REF_FRAME>TEME</REF_FRAME><TIME_SYSTEM>UTC</TIME_SYSTEM><MEAN_ELEMENT_THEORY>SGP4</MEAN_ELEMENT_THEORY></metadata><data><meanElements><EPOCH>2025-09-06T21:13:04.124928</EPOCH><MEAN_MOTION>14.36604601</MEAN_MOTION><ECCENTRICITY>.00021683</ECCENTRICITY><INCLINATION>86.3957</INCLINATION><RA_OF_ASC_NODE>47.8309</RA_OF_ASC_NODE><ARG_OF_PERICENTER>85.3688</ARG_OF_PERICENTER><MEAN_ANOMALY>274.7756</MEAN_ANOMALY></meanElements><tleParameters><EPHEMERIS_TYPE>0</EPHEMERIS_TYPE><CLASSIFICATION_TYPE>U</CLASSIFICATION_TYPE><NORAD_CAT_ID>25286</NORAD_CAT_ID><ELEMENT_SET_NO>999</ELEMENT_SET_NO><REV_AT_EPOCH>43557</REV_AT_EPOCH><BSTAR>.24541627E-3</BSTAR><MEAN_MOTION_DOT>.741E-5</MEAN_MOTION_DOT><MEAN_MOTION_DDOT>0</MEAN_MOTION_DDOT></tleParameters></data></segment></body></omm>
<omm id="CCSDS_OMM_VERS" version="2.0">
<header><CREATION_DATE/><ORIGINATOR/></header><body><segment><metadata><OBJECT_NAME>IRIDIUM 69</OBJECT_NAME><OBJECT_ID>1998-026A</OBJECT_ID><CENTER_NAME>EARTH</CENTER_NAME><REF_FRAME>TEME</REF_FRAME><TIME_SYSTEM>UTC</TIME_SYSTEM><MEAN_ELEMENT_THEORY>SGP4</MEAN_ELEMENT_THEORY></metadata><data><meanElements><EPOCH>2025-09-06T22:09:55.994400</EPOCH><MEAN_MOTION>14.41038594</MEAN_MOTION><ECCENTRICITY>.00044128</ECCENTRICITY><INCLINATION>86.3930</INCLINATION><RA_OF_ASC_NODE>60.8534</RA_OF_ASC_NODE><ARG_OF_PERICENTER>102.6580</ARG_OF_PERICENTER><MEAN_ANOMALY>257.5113</MEAN_ANOMALY></meanElements><tleParameters><EPHEMERIS_TYPE>0</EPHEMERIS_TYPE><CLASSIFICATION_TYPE>U</CLASSIFICATION_TYPE><NORAD_CAT_ID>25319</NORAD_CAT_ID><ELEMENT_SET_NO>999</ELEMENT_SET_NO><REV_AT_EPOCH>43483</REV_AT_EPOCH><BSTAR>.22161906E-3</BSTAR><MEAN_MOTION_DOT>.732E-5</MEAN_MOTION_DOT><MEAN_MOTION_DDOT>0</MEAN_MOTION_DDOT></tleParameters></data></segment></body></omm>
<omm id="CCSDS_OMM_VERS" version="2.0">
<header><CREATION_DATE/><ORIGINATOR/></header><body><segment><metadata><OBJECT_NAME>IRIDIUM 71</OBJECT_NAME><OBJECT_ID>1998-026B</OBJECT_ID><CENTER_NAME>EARTH</CENTER_NAME><REF_FRAME>TEME</REF_FRAME><TIME_SYSTEM>UTC</TIME_SYSTEM><MEAN_ELEMENT_THEORY>SGP4</MEAN_ELEMENT_THEORY></metadata><data><meanElements><EPOCH>2025-09-06T22:04:38.695584</EPOCH><MEAN_MOTION>14.41219994</MEAN_MOTION><ECCENTRICITY>.00031178</ECCENTRICITY><INCLINATION>86.3936</INCLINATION><RA_OF_ASC_NODE>55.5326</RA_OF_ASC_NODE><ARG_OF_PERICENTER>132.4953</ARG_OF_PERICENTER><MEAN_ANOMALY>227.6511</MEAN_ANOMALY></meanElements><tleParameters><EPHEMERIS_TYPE>0</EPHEMERIS_TYPE><CLASSIFICATION_TYPE>U</CLASSIFICATION_TYPE><NORAD_CAT_ID>25320</NORAD_CAT_ID><ELEMENT_SET_NO>999</ELEMENT_SET_NO><REV_AT_EPOCH>43536</REV_AT_EPOCH><BSTAR>.21966182E-3</BSTAR><MEAN_MOTION_DOT>.729E-5</MEAN_MOTION_DOT><MEAN_MOTION_DDOT>0</MEAN_MOTION_DDOT></tleParameters></data></segment></body></omm>
<omm id="CCSDS_OMM_VERS" version="2.0">
<header><CREATION_DATE/><ORIGINATOR/></header><body><segment><metadata><OBJECT_NAME>IRIDIUM 73</OBJECT_NAME><OBJECT_ID>1998-032C</OBJECT_ID><CENTER_NAME>EARTH</CENTER_NAME><REF_FRAME>TEME</REF_FRAME><TIME_SYSTEM>UTC</TIME_SYSTEM><MEAN_ELEMENT_THEORY>SGP4</MEAN_ELEMENT_THEORY></metadata><data><meanElements><EPOCH>2025-09-06T21:03:52.136064</EPOCH><MEAN_MOTION>14.51806499</MEAN_MOTION><ECCENTRICITY>.00028631</ECCENTRICITY><INCLINATION>86.4459</INCLINATION><RA_OF_ASC_NODE>12.1142</RA_OF_ASC_NODE><ARG_OF_PERICENTER>88.4519</ARG_OF_PERICENTER><MEAN_ANOMALY>271.7015</MEAN_ANOMALY></meanElements><tleParameters><EPHEMERIS_TYPE>0</EPHEMERIS_TYPE><CLASSIFICATION_TYPE>U</CLASSIFICATION_TYPE><NORAD_CAT_ID>25344</NORAD_CAT_ID><ELEMENT_SET_NO>999</ELEMENT_SET_NO><REV_AT_EPOCH>44241</REV_AT_EPOCH><BSTAR>.26689926E-3</BSTAR><MEAN_MOTION_DOT>.1093E-4</MEAN_MOTION_DOT><MEAN_MOTION_DDOT>0</MEAN_MOTION_DDOT></tleParameters></data></segment></body></omm>
<omm id="CCSDS_OMM_VERS" version="2.0">
<header><CREATION_DATE/><ORIGINATOR/></header><body><segment><metadata><OBJECT_NAME>IRIDIUM 82</OBJECT_NAME><OBJECT_ID>1998-051A</OBJECT_ID><CENTER_NAME>EARTH</CENTER_NAME><REF_FRAME>TEME</REF_FRAME><TIME_SYSTEM>UTC</TIME_SYSTEM><MEAN_ELEMENT_THEORY>SGP4</MEAN_ELEMENT_THEORY></metadata><data><meanElements><EPOCH>2025-09-06T21:34:20.277984</EPOCH><MEAN_MOTION>15.36154132</MEAN_MOTION><ECCENTRICITY>.00777784</ECCENTRICITY><INCLINATION>86.3599</INCLINATION><RA_OF_ASC_NODE>69.4253</RA_OF_ASC_NODE><ARG_OF_PERICENTER>346.9253</ARG_OF_PERICENTER><MEAN_ANOMALY>12.9979</MEAN_ANOMALY></meanElements><tleParameters><EPHEMERIS_TYPE>0</EPHEMERIS_TYPE><CLASSIFICATION_TYPE>U</CLASSIFICATION_TYPE><NORAD_CAT_ID>25467</NORAD_CAT_ID><ELEMENT_SET_NO>999</ELEMENT_SET_NO><REV_AT_EPOCH>43648</REV_AT_EPOCH><BSTAR>.11086128E-2</BSTAR><MEAN_MOTION_DOT>.43384E-3</MEAN_MOTION_DOT><MEAN_MOTION_DDOT>0</MEAN_MOTION_DDOT></tleParameters></data></segment></body></omm>
</ndm>
